PROBA-1                 
1 26958U 01049B   21356.45994710  .00000628  00000+0  58894-4 0  9993
2 26958  97.7976 311.7671 0071126 213.6891 145.9779 14.95883840 98010
BIRD 2                  
1 26959U 01049C   21355.84382350  .00007883  00000+0  19712-3 0  9992
2 26959  97.7767  71.1895 0006037 292.9877  67.0731 15.40413434425810
CUTE-1 (CO-55)          
1 27844U 03031E   21355.87983979  .00000152  00000+0  87766-4 0  9993
2 27844  98.6800   1.2509 0008869 254.8896 105.1301 14.22360807958622
CUBESAT XI-IV (CO-57)   
1 27848U 03031J   21356.49208153  .00000135  00000+0  80777-4 0  9996
2 27848  98.6851   2.4023 0008706 268.1851  91.8330 14.21931102958562
GENESIS 1               
1 29252U 06029A   21355.93814033  .00003808  00000+0  18189-3 0  9992
2 29252  64.5234 293.3244 0058802 288.0886  71.3838 15.19213402851996
FALCONSAT-3             
1 30776U 07006E   21356.31916325  .00018597  00000+0  40114-3 0  9995
2 30776  35.4351 330.6546 0003628 218.6096 141.4374 15.43675567822122
GENESIS 2               
1 31789U 07028A   21355.88785591  .00003341  00000+0  17093-3 0  9995
2 31789  64.4971 336.2325 0027936 351.9774   8.0898 15.18217676798931
APRIZESAT 4             
1 35684U 09041D   21355.90979122  .00000299  00000+0  47111-4 0  9992
2 35684  98.3136 358.4708 0046557 199.6823 160.2592 14.79445481668819
APRIZESAT 3             
1 35686U 09041F   21355.80760312  .00000457  00000+0  54435-4 0  9995
2 35686  98.1212  73.5132 0073519  47.4186 313.3201 14.87618733672241
PROBA-2                 
1 36037U 09059B   21356.13233215  .00000100  00000+0  34983-4 0  9990
2 36037  98.2193 181.0894 0012321 298.3211  61.6742 14.53180871643590
APRIZESAT 5             
1 37792U 11044E   21356.39012195  .00000396  00000+0  64988-4 0  9991
2 37792  98.3490 221.3326 0057359 207.1915 152.6287 14.75566705557022
APRIZESAT 6             
1 37793U 11044F   21356.52187024  .00000373  00000+0  66549-4 0  9991
2 37793  98.4150 197.4221 0045601 254.6190 163.9643 14.72612075555975
TET-1                   
1 38710U 12039D   21356.48356906  .00021870  00000+0  29064-3 0  9993
2 38710  97.5322  60.8331 0001468  28.3658 331.7677 15.58224245529762
PROBA-V                 
1 39159U 13021A   21356.38774053  .00000001  00000+0  18869-4 0  9994
2 39159  98.3832  35.9891 0003165 240.8985 119.1878 14.23013384448143
STPSAT-3                
1 39380U 13064A   21356.45809915  .00018845  00000+0  46578-3 0  9993
2 39380  40.4999  21.2359 0002696 117.1149 242.9941 15.39983206453626
APRIZESAT 7             
1 39416U 13066A   21355.91866925  .00000426  00000+0  56462-4 0  9999
2 39416  97.5538 340.1841 0039945 221.5204 138.2976 14.84175251437704
APRIZESAT 8             
1 39425U 13066K   21356.49111449  .00000460  00000+0  64196-4 0  9998
2 39425  97.6041 331.6417 0050255 260.1898  99.3639 14.81368217437035
BUGSAT-1 (TITA)         
1 40014U 14033E   21356.52448393  .00002126  00000+0  19372-3 0  9990
2 40014  98.1303 342.9434 0029716 261.9419  97.8441 14.95998612409685
SAUDISAT 4              
1 40016U 14033G   21356.50299424  .00000271  00000+0  46313-4 0  9994
2 40016  97.6476 195.9852 0048172 356.9778   3.1133 14.75411748404324
APRIZESAT 9             
1 40018U 14033J   21356.44661963  .00000230  00000+0  44438-4 0  9991
2 40018  97.6999 171.7199 0072550  62.4602 298.3953 14.70109193402772
APRIZESAT 10            
1 40019U 14033K   21356.45421590  .00000267  00000+0  53043-4 0  9995
2 40019  97.7459 161.0922 0085533 101.2014 259.8820 14.67159296402023
TDS 1                   
1 40076U 14037H   21355.59155075  .00001303  00000+0  15979-3 0  9995
2 40076  98.4135 213.7277 0005871 289.5655  70.4924 14.84998001403309
TIANTUO 2               
1 40144U 14053B   21356.42757983  .00003381  00000+0  97862-4 0  9998
2 40144  97.2121  74.9729 0012958 114.1226  14.6221 15.36200965407900
TECHNOSAT               
1 42829U 17042E   21356.38726166  .00000836  00000+0  88736-4 0  9997
2 42829  97.4405 215.6499 0012788 236.4134 123.5865 14.91439938241694
FLYING LAPTOP           
1 42831U 17042G   21355.82323923  .00000562  00000+0  61400-4 0  9997
2 42831  97.4418 215.3919 0012650 239.2145 120.7848 14.91430174241611
HAWK-A                  
1 43765U 18099H   21355.84603461  .00000679  00000+0  64654-4 0  9990
2 43765  97.6431  63.1973 0015646 143.4373 216.7920 14.96494370166572
HAWK-B                  
1 43794U 18099AN  21355.71267001  .00000662  00000+0  63204-4 0  9996
2 43794  97.6432  63.0672 0015699 144.0041 216.2241 14.96494395166542
HAWK-C                  
1 43799U 18099AT  21355.77935167  .00000668  00000+0  63728-4 0  9999
2 43799  97.6430  63.0452 0015581 143.5372 216.6914 14.96494713166558
SALSAT                  
1 46495U 20068K   21355.93218009  .00000350  00000+0  29970-4 0  9990
2 46495  97.7110 292.5002 0016988 152.4453 207.7684 15.03712940 67505
